C/2022 L1 (Catalina),e,123.4571,300.0322,59.8459,521.5525,0.0000827,0.99694909,0.0000,09/28.2315/2022,2000,g 15.8,4.0
# From MPEC 2023-W26
C/2022 L2 (ATLAS),h,03/12.2780/2024,129.3148,39.2412,199.9247,1.001504,2.692657,2000,6.5,4.0
# From MPEC 2023-VM5
P/2022 L3 (ATLAS),e,21.5431,29.8054,10.3479,6.501818,0.0594500,0.62774417,22.8891,11/19.0/2023,2000,g 16.5,4.0
# From MPEC 2022-N37
C/2022 L4 (PANSTARRS),e,141.2424,66.0611,125.3332,284.3151,0.0002056,0.98939747,0.0000,12/08.8769/2021,2000,g 14.0,4.0
# From MPEC 2023-FK0
C/2022 N1 (Attard-Maury),e,164.7369,301.8706,41.0626,37.01296,0.0043770,0.95998489,1.9037,11/19.0/2023,2000,g 16.9,4.0
# From MPEC 2023-W26
C/2022 N2 (PANSTARRS),h,07/31.5890/2025,5.5023,319.7396,75.3533,1.003749,3.826669,2000,6.0,4.0
# From MPEC 2023-R20
C/2022 O1 (ATLAS),h,02/15.8512/2022,71.0410,49.9173,268.9172,1.003545,7.431634,2000,6.0,4.0
# From MPEC 2023-HD1
P/2022 O2 (PANSTARRS),e,9.4243,330.4892,48.6318,6.306153,0.0622382,0.72139002,19.6641,11/19.0/2023,2000,g 16.2,4.0
# From MPEC 2023-N01
C/2022 P1 (NEOWISE),e,154.6061,205.0825,249.9445,18.47254,0.0124141,0.91364423,4.4130,11/19.0/2023,2000,g 13.0,4.0
# From MPEC 2023-G31
P/2022 P2 (ZTF),e,12.4402,291.2141,137.6499,4.487620,0.1036764,0.55816556,51.4328,11/19.0/2023,2000,g 12.5,4.0
# From MPEC 2023-HD1
C/2022 P3 (ZTF),e,59.5163,72.2237,0.1265,249.0340,0.0002508,0.98971192,0.0000,07/27.4152/2022,2000,g  9.0,4.0
# From MPEC 2023-R20
C/2022 Q2 (ATLAS),e,151.4844,352.9475,44.0726,32.82004,0.0052420,0.94990359,1.5274,11/19.0/2023,2000,g 13.0,4.0
# From MPEC 2023-W26
C/2022 QE78 (ATLAS),h,09/10.1504/2025,36.5480,119.9460,0.3543,1.003618,5.481134,2000,5.0,4.0
# From MPEC 2023-W26
P/2022 R1 (PANSTARRS),e,7.3827,176.0611,222.1005,7.238919,0.0506050,0.50636216,2.0949,11/19.0/2023,2000,g 11.5,4.0
# From MPEC 2022-Y15
C/2022 R2 (ATLAS),e,52.9050,60.4101,78.3544,418.6077,0.0001151,0.99848993,0.0000,10/25.2464/2022,2000,g 17.0,4.0
# From MPEC 2023-VM5
C/2022 R3 (Leonard),h,03/05.4380/2023,43.0827,8.2404,72.8800,1.001025,5.129210,2000,9.0,4.0
# From MPEC 2022-X67
P/2022 R4 (PANSTARRS),e,21.0208,176.6265,197.4544,3.836671,0.1311512,0.49008050,65.1346,11/19.0/2023,2000,g 16.5,4.0
# From MPEC 2022-WQ9
P/2022 R5 (PANSTARRS),e,15.2945,115.0505,240.5647,3.068759,0.1833411,0.19529383,99.1349,11/19.0/2023,2000,g 16.0,4.0
# From MPEC 2023-W26
C/2022 R6 (PANSTARRS),h,08/25.5368/2025,57.0218,150.7715,319.8580,1.004254,6.567224,2000,5.0,4.0
# From MPEC 2023-HD1
P/2022 S1 (PANSTARRS),e,34.5799,136.0926,262.7837,6.408299,0.0607561,0.50811056,27.7507,11/19.0/2023,2000,g 15.1,4.0
# From MPEC 2022-VC5
C/2022 S3 (PANSTARRS),h,01/21.6925/2023,78.5429,157.3182,267.9649,1.000398,0.838337,2000,17.0,4.0
# From MPEC 2023-W26
C/2022 S4 (Lemmon),e,101.2218,220.1750,268.5230,1520,0.0000166,0.99818218,0.0000,07/18.6232/2024,2000,g  8.0,4.0
# From MPEC 2023-HD1
C/2022 S5 (PANSTARRS),e,136.5328,214.8590,232.7956,20.44303,0.0106632,0.89340474,3.8013,11/19.0/2023,2000,g 16.3,4.0
# From MPEC 2023-M14
C/2022 T1 (Lemmon),e,22.5436,236.9175,324.3138,12807,0.0000007,0.99973102,0.0000,02/17.4984/2024,2000,g 12.0,4.0
# From MPEC 2023-W26
C/2022 U1 (Leonard),e,128.1487,72.5238,78.5672,8636,0.0000012,0.99951342,0.0000,03/25.7727/2024,2000,g  8.5,4.0
# From MPEC 2023-VM5
C/2022 U2 (ATLAS),e,48.2458,304.4655,147.9217,96.42114,0.0010410,0.98622639,0.0000,01/14.2331/2023,2000,g 16.0,4.0
# From MPEC 2023-W26
C/2022 U3 (Bok),h,07/27.9968/2024,33.6357,272.7902,189.0378,1.003266,4.827053,2000,7.5,4.0
# From MPEC 2023-W26
C/2022 U4 (Bok),e,52.0356,132.9226,89.0073,3142,0.0000056,0.99907763,0.0000,08/03.6658/2023,2000,g 10.5,4.0
# From MPEC 2023-W26
C/2022 V2 (Lemmon),e,98.9046,332.8709,168.9489,36.85354,0.0044054,0.94400598,0.0752,11/19.0/2023,2000,g 12.0,4.0
# From MPEC 2023-CD7
P/2022 W1 (Rankin),e,13.4660,38.8153,17.8284,6.969081,0.0535724,0.51664460,22.9874,11/19.0/2023,2000,g 12.5,4.0
# From MPEC 2023-M14
C/2022 W2 (ATLAS),e,63.5265,320.4518,123.2672,340.8121,0.0001567,0.99083681,0.0000,03/08.7262/2023,2000,g 13.3,4.0
# From MPEC 2023-W26
C/2022 W3 (Leonard),e,103.5588,132.2693,116.5248,280.8772,0.0002094,0.99502361,0.0000,06/22.7779/2023,2000,g 13.0,4.0
# From MPEC 2023-M14
C/2022 Y1 (Hogan),e,18.8559,285.9060,174.7684,12.57131,0.0221123,0.76470561,7.8868,11/19.0/2023,2000,g  9.0,4.0
# From MPEC 2023-TM6
C/2022 Y2 (Lemmon),e,165.9050,216.3518,105.5939,19.81351,0.0111754,0.87154586,2.6953,11/19.0/2023,2000,g 13.5,4.0
# From MPEC 2023-KD6
C/2023 A1 (Leonard),e,94.7395,318.3050,159.2479,226.2454,0.0002896,0.99189055,0.0000,03/18.7178/2023,2000,g 14.5,4.0
# From MPEC 2023-J95
C/2023 A2 (SWAN),e,94.7103,94.4765,142.5596,454.7952,0.0001016,0.99791739,0.0000,01/20.3741/2023,2000,g 13.5,4.0
# From MPEC 2023-R20
C/2023 A3 (Tsuchinshan-ATLAS),h,09/27.7349/2024,139.1167,21.5581,308.4858,1.000134,0.391465,2000,5.0,4.0
# From MPEC 2023-KD6
P/2023 B1 (PANSTARRS),e,14.5882,78.5707,81.3241,7.054454,0.0526028,0.12952407,10.7802,11/19.0/2023,2000,g  5.5,4.0
# From MPEC 2023-O39
C/2023 B2 (ATLAS),e,40.7717,218.1210,317.3878,597.4946,0.0000675,0.99708301,0.0000,03/10.4852/2023,2000,g 14.5,4.0
# From MPEC 2023-F81
P/2023 B3 (PANSTARRS),e,9.1612,154.0056,240.0687,4.545960,0.1016871,0.12318284,118.9796,11/19.0/2023,2000,g 10.5,4.0
# From MPEC 2023-OA6
C/2023 C2 (ATLAS),e,48.3162,301.0152,357.4573,3235,0.0000054,0.99926796,0.0000,11/16.8268/2024,2000,g  7.0,4.0
# From MPEC 2023-W26
C/2023 E1 (ATLAS),e,38.3122,164.5730,105.9026,19.35240,0.0115772,0.94694780,1.6311,11/19.0/2023,2000,g 15.5,4.0
# From MPEC 2023-N01
C/2023 F1 (PANSTARRS),e,131.7525,25.2478,216.6541,257.8943,0.0002380,0.99337652,0.0000,06/28.3481/2023,2000,g 16.0,4.0
# From MPEC 2023-T65
C/2023 F3 (ATLAS),h,02/02.8106/2025,145.9577,109.4470,265.5424,1.004277,5.190123,2000,6.0,4.0
# From MPEC 2023-M14
C/2023 H1 (PANSTARRS),e,21.7776,292.6411,333.8436,1559,0.0000160,0.99715067,0.0000,11/28.4029/2024,2000,g 12.6,4.0
# From MPEC 2023-W26
C/2023 H2 (Lemmon),e,113.7536,217.0447,150.6496,247.2359,0.0002535,0.99638237,0.0000,10/29.1902/2023,2000,g 14.0,4.0
# From MPEC 2023-R20
C/2023 H3 (PANSTARRS),e,2.4894,55.1001,193.3316,13.63129,0.0195839,0.61612430,358.1972,11/19.0/2023,2000,g 10.0,4.0
# From MPEC 2023-SQ0
A/2023 H4,e,76.6186,230.8137,64.8980,140.0371,0.0005948,0.98486606,0.0000,08/08.8034/2023,2000,g 18.0,22.0
# From MPEC 2023-W26
C/2023 H5 (Lemmon),h,06/30.1401/2025,97.8759,159.4822,60.0777,1.000426,4.312990,2000,7.0,4.0
# From MPEC 2023-VM5
C/2023 K1 (ATLAS),e,137.9986,223.7066,337.4699,732.7579,0.0000497,0.99721667,0.0000,09/07.7432/2023,2000,g 13.0,4.0
# From MPEC 2023-N01
P/2023 M1 (PANSTARRS),e,12.2883,216.8635,79.6863,6.849004,0.0549874,0.58737852,358.6038,11/19.0/2023,2000,g 13.5,4.0
# From MPEC 2023-VM5
P/2023 M2 (PANSTARRS),e,19.7256,83.2683,242.9981,5.563254,0.0751122,0.36937176,8.7742,11/19.0/2023,2000,g 12.5,4.0
# From MPEC 2023-W26
P/2023 M4 (ATLAS),e,7.5927,296.2967,320.6835,5.452341,0.0774158,0.27928021,45.1318,11/19.0/2023,2000,g  7.5,4.0
# From MPEC 2023-VM5
C/2023 P1 (Nishimura),e,132.4772,66.8346,116.2996,57.15204,0.0022812,0.99606072,0.0000,09/17.6419/2023,2000,g 10.0,4.0
# From MPEC 2023-W26
C/2023 Q1 (PANSTARRS),h,12/01.3367/2024,36.6762,7.1607,84.4391,1.004511,2.574827,2000,10.0,4.0
# From MPEC 2023-W26
C/2023 Q2 (PANSTARRS),e,104.0553,92.6814,171.7270,339.7898,0.0001574,0.99055487,0.0000,06/24.0953/2024,2000,g 11.5,4.0
# From MPEC 2023-W26
C/2023 R1 (PANSTARRS),h,04/14.0828/2026,149.3139,62.5477,144.3011,1.000750,3.569969,2000,6.0,4.0
# From MPEC 2023-W26
C/2023 R2 (PANSTARRS),h,08/12.0995/2024,30.7249,188.9727,337.2153,1.000662,0.905569,2000,10.5,4.0
# From MPEC 2023-UR6
A/2023 R3,e,12.0865,347.3542,86.8909,691.3397,0.0000542,0.99803635,0.0000,12/18.1833/2023,2000,g 20.0,22.0
# From MPEC 2023-W26
P/2023 S1,e,9.1476,317.6070,179.8236,3.856395,0.1301463,0.32100953,299.8660,11/19.0/2023,2000,g 11.5,4.0
# From MPEC 2023-W26
C/2023 S2 (ATLAS),e,20.4855,230.5616,78.1093,150.6282,0.0005331,0.99291152,0.0000,10/15.3775/2023,2000,g 15.0,4.0
# From MPEC 2023-W26
C/2023 S3 (Lemmon),e,140.4980,233.8334,281.5703,28.48956,0.0064815,0.97086079,0.0000,01/19.6230/2024,2000,g 16.0,4.0
# From MPEC 2023-W26
P/2023 T1 (PANSTARRS),e,6.6075,249.5797,202.8727,4.236695,0.1130221,0.33510063,338.9891,11/19.0/2023,2000,g 14.0,4.0
# From MPEC 2023-W26
C/2023 T2 (Borisov),e,48.5940,317.5231,111.2253,230.7928,0.0002811,0.99135552,0.0000,12/22.8351/2023,2000,g 14.5,4.0
# From MPEC 2023-W26
C/2023 T3 (Fuls),e,27.2388,246.0557,302.6093,1237,0.0000226,0.99712457,0.0000,01/24.9622/2025,2000,g  8.5,4.0
# From MPEC 2023-VM5
C/2023 U1 (Fuls),h,10/13.9752/2024,108.1893,305.8466,255.9853,1.010157,4.958629,2000,8.0,4.0
# From MPEC 2023-W26
C/2023 V1 (Lemmon),e,102.0087,15.0252,103.3092,9237,0.0000011,0.99944867,0.0000,07/13.1226/2025,2000,g  8.5,4.0
# From MPEC 2023-W26
P/2023 V2 (PANSTARRS),e,9.8775,95.5035,330.5837,7.264342,0.0503396,0.57264891,356.1128,11/19.0/2023,2000,g 13.5,4.0
# From MPEC 2023-VM5
C/2023 V3 (PANSTARRS),e,40.2600,91.4855,291.5764,13.24251,0.0204526,0.66231768,2.1361,11/19.0/2023,2000,g 11.5,4.0
# From MPEC 2023-W26
C/2023 V4 (Camarasa-Duszanowicz),h,05/30.3188/2024,67.1066,66.3552,50.8561,1.000795,1.121465,2000,12.0,4.0
# From MPEC 2023-W26
C/2023 V5 (Leonard),h,12/13.4370/2023,73.9608,31.4432,56.3946,1.028246,0.849133,2000,21.5,4.0
# From MPEC 2023-W26
P/2023 V6 (PANSTARRS),e,3.9792,190.0734,195.3211,5.337054,0.0799377,0.17629481,25.9588,11/19.0/2023,2000,g 11.5,4.0
# From  98, 1083
1P/Halley,e,162.2149,59.6339,112.5519,17.87007,0.0130471,0.96665432,179.7078,11/19.0/2023,2000,g  4.0,6.0
# From MPEC 2023-VM5
2P/Encke,e,11.3367,334.0192,187.2878,2.218689,0.2982357,0.84693858,8.1931,11/19.0/2023,2000,g 11.5,6.0
# From  76, 1135
3D/Biela,e,7.8870,276.1827,192.2786,3.539711,0.1479968,0.76734835,273.3802,11/19.0/2023,2000,g 11.0,6.0
# From  76, 1135
3D-A/Biela,e,7.2155,276.6890,192.1204,3.549285,0.1473984,0.76703200,304.1136,11/19.0/2023,2000,g 11.0,6.0
# From  76, 1135
